[{"OBJECT_NAME":"TRANSPORTER-15 OBJECT F","OBJECT_ID":"2025-276F","EPOCH":"2026-03-09T17:57:42.210144","MEAN_MOTION":15.19380664,"ECCENTRICITY":0.00054716,"INCLINATION":97.4283,"RA_OF_ASC_NODE":144.0186,"ARG_OF_PERICENTER":0.0521,"MEAN_ANOMALY":0.0713,"EPHEMERIS_TYPE":0,"CLASSIFICATION_TYPE":"U","NORAD_CAT_ID":66671,"ELEMENT_SET_NO":999,"REV_AT_EPOCH":1532,"BSTAR":0.00065501978,"MEAN_MOTION_DOT":0.0001381,"MEAN_MOTION_DDOT":0},{"OBJECT_NAME":"USA 40 R\/B DEB","OBJECT_ID":"1989-061N","EPOCH":"2026-03-09T09:49:33.093120","MEAN_MOTION":11.84886734,"ECCENTRICITY":0.16014715,"INCLINATION":56.9516,"RA_OF_ASC_NODE":217.5526,"ARG_OF_PERICENTER":307.4414,"MEAN_ANOMALY":39.0995,"EPHEMERIS_TYPE":0,"CLASSIFICATION_TYPE":"U","NORAD_CAT_ID":23159,"ELEMENT_SET_NO":999,"REV_AT_EPOCH":24716,"BSTAR":0.0075061487,"MEAN_MOTION_DOT":0.00032695,"MEAN_MOTION_DDOT":0}]
